ONEWEB-0588             
1 55153U 23004P   26126.60378140  .00000059  00000+0  11700-3 0  9999
2 55153  87.9174 343.7470 0001504  99.6831 260.4471 13.18685182164212
ONEWEB-0598             
1 55154U 23004Q   26126.42593957  .00000181  00000+0  47561-3 0  9995
2 55154  87.8916  29.3746 0001432  55.1589 304.9673 13.11414165160427
ONEWEB-0599             
1 55155U 23004R   26126.63970103 -.00000029  00000+0 -10796-3 0  9994
2 55155  87.9173  14.1225 0001907  74.6802 285.4540 13.17649268162012
ONEWEB-0614             
1 55156U 23004S   26126.26824835  .00000362  00000+0  98618-3 0  9991
2 55156  87.8918  29.4143 0001838  86.5411 273.5927 13.11417007160347
ONEWEB-0616             
1 55157U 23004T   26126.37813968  .00000029  00000+0  41804-4 0  9995
2 55157  87.9175  14.1776 0002550  65.3548 294.7849 13.17649941162198
ONEWEB-0617             
1 55158U 23004U   26126.48526439  .00000575  00000+0  15865-2 0  9994
2 55158  87.8925  29.3600 0001679  93.5430 266.5890 13.11419260160395
ONEWEB-0618             
1 55159U 23004V   26126.58875700  .00005601  00000+0  31636-3 0  9994
2 55159  86.9135 194.5099 0015329  90.9436 269.3561 15.12810966175977
ONEWEB-0619             
1 55160U 23004W   26126.63800763 -.00000022  00000+0 -89020-4 0  9994
2 55160  87.9183  14.1029 0002234  88.1971 271.9416 13.17650349162128
ONEWEB-0620             
1 55161U 23004X   26126.48018251  .00000494  00000+0  13572-2 0  9999
2 55161  87.8921  29.3719 0001529  77.1170 283.0129 13.11419193160360
ONEWEB-0621             
1 55162U 23004Y   26126.43100158  .00000017  00000+0  13348-4 0  9997
2 55162  87.8929  29.3668 0001874  86.8430 273.2913 13.11416926160331
ONEWEB-0622             
1 55163U 23004Z   26126.43608853 -.00000192  00000+0 -57647-3 0  9998
2 55163  87.8930  29.3675 0001452 102.5786 257.5504 13.11417077160322
ONEWEB-0623             
1 55164U 23004AA  26126.63294501  .00000018  00000+0  13591-4 0  9998
2 55164  87.9169  14.1395 0002061 103.8653 256.2708 13.17649115162110
ONEWEB-0624             
1 55165U 23004AB  26126.20370301 -.00006578  00000+0 -18197-1 0  9998
2 55165  87.8979 358.9387 0001799  83.1375 276.9958 13.12959644162568
ONEWEB-0625             
1 55166U 23004AC  26126.24314074  .00000066  00000+0  13598-3 0  9994
2 55166  87.9176  14.2114 0001948  78.8315 281.3036 13.17650783162058
ONEWEB-0626             
1 55167U 23004AD  26126.61269023  .00000072  00000+0  15165-3 0  9998
2 55167  87.9171  14.1382 0001437  71.0053 289.1234 13.17648941162102
ONEWEB-0627             
1 55168U 23004AE  26126.60088693 -.00000008  00000+0 -55022-4 0  9998
2 55168  87.9170  14.1406 0001951  97.6264 262.5089 13.17649250162105
