[{"OBJECT_NAME":"ONEWEB-0588","OBJECT_ID":"2023-004P","EPOCH":"2026-05-06T14:29:26.712960","MEAN_MOTION":13.18685182,"ECCENTRICITY":0.0001504,"INCLINATION":87.9174,"RA_OF_ASC_NODE":343.747,"ARG_OF_PERICENTER":99.6831,"MEAN_ANOMALY":260.4471,"EPHEMERIS_TYPE":0,"CLASSIFICATION_TYPE":"U","NORAD_CAT_ID":55153,"ELEMENT_SET_NO":999,"REV_AT_EPOCH":16421,"BSTAR":0.00011700000000000001,"MEAN_MOTION_DOT":5.9e-07,"MEAN_MOTION_DDOT":0.0},{"OBJECT_NAME":"ONEWEB-0598","OBJECT_ID":"2023-004Q","EPOCH":"2026-05-06T10:13:21.178848","MEAN_MOTION":13.11414165,"ECCENTRICITY":0.0001432,"INCLINATION":87.8916,"RA_OF_ASC_NODE":29.3746,"ARG_OF_PERICENTER":55.1589,"MEAN_ANOMALY":304.9673,"EPHEMERIS_TYPE":0,"CLASSIFICATION_TYPE":"U","NORAD_CAT_ID":55154,"ELEMENT_SET_NO":999,"REV_AT_EPOCH":16042,"BSTAR":0.00047561,"MEAN_MOTION_DOT":1.81e-06,"MEAN_MOTION_DDOT":0.0},{"OBJECT_NAME":"ONEWEB-0599","OBJECT_ID":"2023-004R","EPOCH":"2026-05-06T15:21:10.168992","MEAN_MOTION":13.17649268,"ECCENTRICITY":0.0001907,"INCLINATION":87.9173,"RA_OF_ASC_NODE":14.1225,"ARG_OF_PERICENTER":74.6802,"MEAN_ANOMALY":285.454,"EPHEMERIS_TYPE":0,"CLASSIFICATION_TYPE":"U","NORAD_CAT_ID":55155,"ELEMENT_SET_NO":999,"REV_AT_EPOCH":16201,"BSTAR":-0.00010796,"MEAN_MOTION_DOT":-2.9e-07,"MEAN_MOTION_DDOT":0.0},{"OBJECT_NAME":"ONEWEB-0614","OBJECT_ID":"2023-004S","EPOCH":"2026-05-06T06:26:16.657440","MEAN_MOTION":13.11417007,"ECCENTRICITY":0.0001838,"INCLINATION":87.8918,"RA_OF_ASC_NODE":29.4143,"ARG_OF_PERICENTER":86.5411,"MEAN_ANOMALY":273.5927,"EPHEMERIS_TYPE":0,"CLASSIFICATION_TYPE":"U","NORAD_CAT_ID":55156,"ELEMENT_SET_NO":999,"REV_AT_EPOCH":16034,"BSTAR":0.00098618,"MEAN_MOTION_DOT":3.62e-06,"MEAN_MOTION_DDOT":0.0},{"OBJECT_NAME":"ONEWEB-0616","OBJECT_ID":"2023-004T","EPOCH":"2026-05-06T09:04:31.268352","MEAN_MOTION":13.17649941,"ECCENTRICITY":0.000255,"INCLINATION":87.9175,"RA_OF_ASC_NODE":14.1776,"ARG_OF_PERICENTER":65.3548,"MEAN_ANOMALY":294.7849,"EPHEMERIS_TYPE":0,"CLASSIFICATION_TYPE":"U","NORAD_CAT_ID":55157,"ELEMENT_SET_NO":999,"REV_AT_EPOCH":16219,"BSTAR":4.1804e-05,"MEAN_MOTION_DOT":2.9e-07,"MEAN_MOTION_DDOT":0.0},{"OBJECT_NAME":"ONEWEB-0617","OBJECT_ID":"2023-004U","EPOCH":"2026-05-06T11:38:46.843296","MEAN_MOTION":13.1141926,"ECCENTRICITY":0.0001679,"INCLINATION":87.8925,"RA_OF_ASC_NODE":29.36,"ARG_OF_PERICENTER":93.543,"MEAN_ANOMALY":266.589,"EPHEMERIS_TYPE":0,"CLASSIFICATION_TYPE":"U","NORAD_CAT_ID":55158,"ELEMENT_SET_NO":999,"REV_AT_EPOCH":16039,"BSTAR":0.0015865000000000002,"MEAN_MOTION_DOT":5.75e-06,"MEAN_MOTION_DDOT":0.0},{"OBJECT_NAME":"ONEWEB-0618","OBJECT_ID":"2023-004V","EPOCH":"2026-05-06T14:07:48.604800","MEAN_MOTION":15.12810966,"ECCENTRICITY":0.0015329,"INCLINATION":86.9135,"RA_OF_ASC_NODE":194.5099,"ARG_OF_PERICENTER":90.9436,"MEAN_ANOMALY":269.3561,"EPHEMERIS_TYPE":0,"CLASSIFICATION_TYPE":"U","NORAD_CAT_ID":55159,"ELEMENT_SET_NO":999,"REV_AT_EPOCH":17597,"BSTAR":0.00031635999999999996,"MEAN_MOTION_DOT":5.601e-05,"MEAN_MOTION_DDOT":0.0},{"OBJECT_NAME":"ONEWEB-0619","OBJECT_ID":"2023-004W","EPOCH":"2026-05-06T15:18:43.859232","MEAN_MOTION":13.17650349,"ECCENTRICITY":0.0002234,"INCLINATION":87.9183,"RA_OF_ASC_NODE":14.1029,"ARG_OF_PERICENTER":88.1971,"MEAN_ANOMALY":271.9416,"EPHEMERIS_TYPE":0,"CLASSIFICATION_TYPE":"U","NORAD_CAT_ID":55160,"ELEMENT_SET_NO":999,"REV_AT_EPOCH":16212,"BSTAR":-8.902e-05,"MEAN_MOTION_DOT":-2.2e-07,"MEAN_MOTION_DDOT":0.0},{"OBJECT_NAME":"ONEWEB-0620","OBJECT_ID":"2023-004X","EPOCH":"2026-05-06T11:31:27.768864","MEAN_MOTION":13.11419193,"ECCENTRICITY":0.0001529,"INCLINATION":87.8921,"RA_OF_ASC_NODE":29.3719,"ARG_OF_PERICENTER":77.117,"MEAN_ANOMALY":283.0129,"EPHEMERIS_TYPE":0,"CLASSIFICATION_TYPE":"U","NORAD_CAT_ID":55161,"ELEMENT_SET_NO":999,"REV_AT_EPOCH":16036,"BSTAR":0.0013572,"MEAN_MOTION_DOT":4.94e-06,"MEAN_MOTION_DDOT":0.0},{"OBJECT_NAME":"ONEWEB-0621","OBJECT_ID":"2023-004Y","EPOCH":"2026-05-06T10:20:38.536512","MEAN_MOTION":13.11416926,"ECCENTRICITY":0.0001874,"INCLINATION":87.8929,"RA_OF_ASC_NODE":29.3668,"ARG_OF_PERICENTER":86.843,"MEAN_ANOMALY":273.2913,"EPHEMERIS_TYPE":0,"CLASSIFICATION_TYPE":"U","NORAD_CAT_ID":55162,"ELEMENT_SET_NO":999,"REV_AT_EPOCH":16033,"BSTAR":1.3348e-05,"MEAN_MOTION_DOT":1.7e-07,"MEAN_MOTION_DDOT":0.0},{"OBJECT_NAME":"ONEWEB-0622","OBJECT_ID":"2023-004Z","EPOCH":"2026-05-06T10:27:58.048992","MEAN_MOTION":13.11417077,"ECCENTRICITY":0.0001452,"INCLINATION":87.893,"RA_OF_ASC_NODE":29.3675,"ARG_OF_PERICENTER":102.5786,"MEAN_ANOMALY":257.5504,"EPHEMERIS_TYPE":0,"CLASSIFICATION_TYPE":"U","NORAD_CAT_ID":55163,"ELEMENT_SET_NO":999,"REV_AT_EPOCH":16032,"BSTAR":-0.00057647,"MEAN_MOTION_DOT":-1.92e-06,"MEAN_MOTION_DDOT":0.0},{"OBJECT_NAME":"ONEWEB-0623","OBJECT_ID":"2023-004AA","EPOCH":"2026-05-06T15:11:26.448864","MEAN_MOTION":13.17649115,"ECCENTRICITY":0.0002061,"INCLINATION":87.9169,"RA_OF_ASC_NODE":14.1395,"ARG_OF_PERICENTER":103.8653,"MEAN_ANOMALY":256.2708,"EPHEMERIS_TYPE":0,"CLASSIFICATION_TYPE":"U","NORAD_CAT_ID":55164,"ELEMENT_SET_NO":999,"REV_AT_EPOCH":16211,"BSTAR":1.3591e-05,"MEAN_MOTION_DOT":1.8e-07,"MEAN_MOTION_DDOT":0.0},{"OBJECT_NAME":"ONEWEB-0624","OBJECT_ID":"2023-004AB","EPOCH":"2026-05-06T04:53:19.940064","MEAN_MOTION":13.12959644,"ECCENTRICITY":0.0001799,"INCLINATION":87.8979,"RA_OF_ASC_NODE":358.9387,"ARG_OF_PERICENTER":83.1375,"MEAN_ANOMALY":276.9958,"EPHEMERIS_TYPE":0,"CLASSIFICATION_TYPE":"U","NORAD_CAT_ID":55165,"ELEMENT_SET_NO":999,"REV_AT_EPOCH":16256,"BSTAR":-0.018197,"MEAN_MOTION_DOT":-6.578e-05,"MEAN_MOTION_DDOT":0.0},{"OBJECT_NAME":"ONEWEB-0625","OBJECT_ID":"2023-004AC","EPOCH":"2026-05-06T05:50:07.359936","MEAN_MOTION":13.17650783,"ECCENTRICITY":0.0001948,"INCLINATION":87.9176,"RA_OF_ASC_NODE":14.2114,"ARG_OF_PERICENTER":78.8315,"MEAN_ANOMALY":281.3036,"EPHEMERIS_TYPE":0,"CLASSIFICATION_TYPE":"U","NORAD_CAT_ID":55166,"ELEMENT_SET_NO":999,"REV_AT_EPOCH":16205,"BSTAR":0.00013597999999999998,"MEAN_MOTION_DOT":6.6e-07,"MEAN_MOTION_DDOT":0.0},{"OBJECT_NAME":"ONEWEB-0626","OBJECT_ID":"2023-004AD","EPOCH":"2026-05-06T14:42:16.435872","MEAN_MOTION":13.17648941,"ECCENTRICITY":0.0001437,"INCLINATION":87.9171,"RA_OF_ASC_NODE":14.1382,"ARG_OF_PERICENTER":71.0053,"MEAN_ANOMALY":289.1234,"EPHEMERIS_TYPE":0,"CLASSIFICATION_TYPE":"U","NORAD_CAT_ID":55167,"ELEMENT_SET_NO":999,"REV_AT_EPOCH":16210,"BSTAR":0.00015165,"MEAN_MOTION_DOT":7.2e-07,"MEAN_MOTION_DDOT":0.0},{"OBJECT_NAME":"ONEWEB-0627","OBJECT_ID":"2023-004AE","EPOCH":"2026-05-06T14:25:16.630752","MEAN_MOTION":13.1764925,"ECCENTRICITY":0.0001951,"INCLINATION":87.917,"RA_OF_ASC_NODE":14.1406,"ARG_OF_PERICENTER":97.6264,"MEAN_ANOMALY":262.5089,"EPHEMERIS_TYPE":0,"CLASSIFICATION_TYPE":"U","NORAD_CAT_ID":55168,"ELEMENT_SET_NO":999,"REV_AT_EPOCH":16210,"BSTAR":-5.502200000000001e-05,"MEAN_MOTION_DOT":-8e-08,"MEAN_MOTION_DDOT":0.0}]